OBJECT_NAME,OBJECT_ID,EPOCH,MEAN_MOTION,ECCENTRICITY,INCLINATION,RA_OF_ASC_NODE,ARG_OF_PERICENTER,MEAN_ANOMALY,EPHEMERIS_TYPE,CLASSIFICATION_TYPE,NORAD_CAT_ID,ELEMENT_SET_NO,REV_AT_EPOCH,BSTAR,MEAN_MOTION_DOT,MEAN_MOTION_DDOT
EYESAT A (AO-27),1993-061C,2026-05-13T04:15:48.647232,14.30932290,.0008065,98.6891,200.6008,195.5210,164.5726,0,U,22825,999,70199,.3377E-4,.44E-6,0
ITAMSAT (IO-26),1993-061D,2026-05-13T04:01:10.556256,14.31358230,.0008918,98.6839,200.5046,179.1732,180.9467,0,U,22826,999,70230,.33402E-4,.44E-6,0
RADIO ROSTO (RS15),1994-085A,2026-05-13T02:00:39.818016,11.27583708,.0154966,64.8193,359.9900,10.3031,350.1009,0,U,23439,999,29194,-.14009E-3,-.47E-6,0
JAS-2 (FO-29),1996-046B,2026-05-12T19:43:17.051232,13.53272310,.03497074,98.5279,346.5311,188.0537,171.4897,0,U,24278,999,46838,.10648791E-4,-.25E-6,0
FORTE,1997-047A,2026-05-12T23:59:57.465888,14.27929868,.0023657,69.9521,93.4976,320.4041,39.5353,0,U,24920,999,49366,.58753E-4,.88E-6,0
TECHSAT 1B (GO-32),1998-043D,2026-05-12T22:37:38.181792,14.24421275,.0001006,99.0064,124.8147,13.0735,347.0469,0,U,25397,999,44631,.32084E-4,.28E-6,0
ISS (ZARYA),1998-067A,2026-05-13T03:59:43.960128,15.49201863,.0007515,51.6312,113.4597,53.2822,306.8856,0,U,25544,999,56632,.97915E-4,.4986E-4,0
IMAGE,2000-017A,2026-05-11T12:21:24.545088,1.68665748,.74599038,94.2002,314.8870,291.9767,8.1989,0,U,26113,999,16088,-.20584314E-1,.8E-7,0
CLUSTER II-FM7 (SAMBA),2000-041A,2026-05-14T16:04:58.613376,0.44842106,.9016039,149.8131,45.0140,261.7471,0.4872,0,U,26410,999,2015,0,.3081E-4,0
CLUSTER II-FM8 (TANGO),2000-045B,2026-05-14T15:29:09.525696,0.44404709,.901998,150.0702,46.0108,262.6015,0.5030,0,U,26464,999,2014,0,.3165E-4,0
ODIN,2001-007A,2026-05-13T01:08:42.459360,15.66136086,.0002175,97.3931,172.0029,197.3206,162.7980,0,U,26702,999,38388,.75358E-3,.77774E-3,0
OMNI-M1,2001-026A,2026-05-12T13:21:38.726208,3.92401465,.00154473,44.8439,253.4765,47.3287,312.8214,0,U,26857,999,20417,0,-.19E-6,0
PCSAT (NO-44),2001-043C,2026-05-13T00:38:44.897856,14.31942007,.000628,67.0512,335.2127,263.7293,96.3094,0,U,26931,999,28541,.55531E-4,.66E-6,0
PROBA-1,2001-049B,2026-05-13T05:17:46.726080,15.07362953,.0053763,97.9616,140.5348,240.5425,119.0431,0,U,26958,999,33835,.95257E-4,.1415E-4,0
SAUDISAT 1C (SO-50),2002-058C,2026-05-13T05:23:08.641248,14.82970672,.0075631,64.5522,237.1515,268.8585,90.3855,0,U,27607,999,25927,.8804E-4,.595E-5,0
CORIOLIS,2003-001A,2026-05-12T23:08:58.301088,14.19934820,.0013165,98.7136,140.3864,318.2434,41.7737,0,U,27640,999,20922,.53039E-4,.69E-6,0
CUTE-1 (CO-55),2003-031E,2026-05-12T23:35:43.398816,14.24313180,.0008342,98.6747,141.9842,290.4636,69.5647,0,U,27844,999,18666,.10121E-3,.19E-5,0
CUBESAT XI-IV (CO-57),2003-031J,2026-05-12T22:53:44.176128,14.23601310,.0008465,98.6779,141.6963,311.5693,48.4759,0,U,27848,999,18636,.92089E-4,.166E-5,0
MOZHAETS 4 (RS22),2003-042A,2026-05-13T04:26:33.000288,14.73404064,.0011883,98.3475,316.5574,25.8177,110.5654,0,U,27939,999,21039,.10994E-3,.659E-5,0
